NORAD_CAT_ID,OBJECT_NAME,OBJECT_TYPE,EPOCH,MEAN_MOTION,ECCENTRICITY,INCLINATION,RA_OF_ASC_NODE,ARG_OF_PERICENTER,MEAN_ANOMALY,BSTAR,MEAN_MOTION_DOT,MEAN_MOTION_DDOT,TLE_LINE0,TLE_LINE1,TLE_LINE2,SEMIMAJOR_AXIS,PERIOD,APOGEE,PERIGEE,DECAYED
53830.0,STARLINK-4761,PAYLOAD,2024-08-10 14:21:52,15.0885956,0.0001708,53.2194,10.1215,126.0222,234.0929,8.2251e-05,1.022e-05,0.0,0 STARLINK-4761,1 53830U 22114N   24223.59852195  .00001022  00000-0  82251-4 0  9993,2 53830  53.2194  10.1215 0001708 126.0222 234.0929 15.08859560105862,6917.821,95.436,540.867,538.504,0.0
53830.0,STARLINK-4761,PAYLOAD,2024-08-10 19:08:00,15.08871163,0.0001205,53.2196,9.2326,86.2082,273.9048,0.00024025,3.541e-05,0.0,0 STARLINK-4761,1 53830U 22114N   24223.79723047  .00003541  00000-0  24025-3 0  9990,2 53830  53.2196   9.2326 0001205  86.2082 273.9048 15.08871163105899,6917.785,95.436,540.484,538.817,0.0
53830.0,STARLINK-4761,PAYLOAD,2024-08-11 09:26:31,15.08832144,0.0002127,53.2186,6.5572,84.605,275.5184,-9.0084e-06,-4.32e-06,0.0,0 STARLINK-4761,1 53830U 22114N   24224.39342435 -.00000432  00000-0 -90084-5 0  9993,2 53830  53.2186   6.5572 0002127  84.6050 275.5184 15.08832144105448,6917.904,95.438,541.241,538.298,0.0
53830.0,STARLINK-4761,PAYLOAD,2024-08-11 18:58:50,15.08843083,0.0001671,53.2168,4.7792,74.5003,285.6173,-5.9994e-05,-1.243e-05,0.0,0 STARLINK-4761,1 53830U 22114N   24224.79085847 -.00001243  00000-0 -59994-4 0  9993,2 53830  53.2168   4.7792 0001671  74.5003 285.6173 15.08843083105502,6917.871,95.437,540.892,538.58,0.0
53830.0,STARLINK-4761,PAYLOAD,2024-08-12 09:17:18,15.0884551,0.0001746,53.2164,2.0982,57.8811,302.2351,-0.00011357,-2.095e-05,0.0,0 STARLINK-4761,1 53830U 22114N   24225.38701912 -.00002095  00000-0 -11357-3 0  9993,2 53830  53.2164   2.0982 0001746  57.8811 302.2351 15.08845510106135,6917.864,95.437,540.936,538.521,0.0
53830.0,STARLINK-4761,PAYLOAD,2024-08-12 20:24:56,15.08898231,5.75e-05,53.2188,0.0123,88.4293,271.6766,0.00070467,0.00010963,0.0,0 STARLINK-4761,1 53830U 22114N   24225.85065807  .00010963  00000-0  70467-3 0  9999,2 53830  53.2188   0.0123 0000575  88.4293 271.6766 15.08898231105663,6917.702,95.434,539.965,539.17,0.0
53830.0,STARLINK-4761,PAYLOAD,2024-08-13 09:08:05,15.08832062,0.0002339,53.2103,357.6334,105.4066,254.7184,5.0603e-05,5.17e-06,0.0,0 STARLINK-4761,1 53830U 22114N   24226.38061531  .00000517  00000-0  50603-4 0  9993,2 53830  53.2103 357.6334 0002339 105.4066 254.7184 15.08832062105748,6917.905,95.438,541.388,538.152,0.0
53830.0,STARLINK-4761,PAYLOAD,2024-08-13 18:40:24,15.0881402,5.08e-05,53.215,355.8531,158.0666,202.0348,-0.00024609,-4.199e-05,0.0,0 STARLINK-4761,1 53830U 22114N   24226.77806709 -.00004199  00000-0 -24609-3 0  9998,2 53830  53.2150 355.8531 0000508 158.0666 202.0348 15.08814020105804,6917.96,95.439,540.176,539.473,0.0
53830.0,STARLINK-4761,PAYLOAD,2024-08-14 12:09:39,15.08833474,0.0001699,53.2162,352.5773,111.1394,248.978,-1.7985e-05,-5.74e-06,0.0,0 STARLINK-4761,1 53830U 22114N   24227.50671011 -.00000574  00000-0 -17985-4 0  9999,2 53830  53.2162 352.5773 0001699 111.1394 248.9780 15.08833474105914,6917.9,95.438,540.941,538.59,0.0
53830.0,STARLINK-4761,PAYLOAD,2024-08-14 15:20:26,15.08833658,0.0001205,53.2176,351.9865,103.6437,256.4689,0.00013352,1.837e-05,0.0,0 STARLINK-4761,1 53830U 22114N   24227.63919073  .00001837  00000-0  13352-3 0  9990,2 53830  53.2176 351.9865 0001205 103.6437 256.4689 15.08833658106479,6917.9,95.438,540.598,538.931,0.0
53830.0,STARLINK-4761,PAYLOAD,2024-08-15 15:11:13,15.08824006,0.000108,53.218,347.5248,135.6903,224.4175,0.00036538,5.529e-05,0.0,0 STARLINK-4761,1 53830U 22114N   24228.63279105  .00005529  00000-0  36538-3 0  9999,2 53830  53.2180 347.5248 0001080 135.6903 224.4175 15.08824006106623,6917.929,95.439,540.541,539.047,0.0
53830.0,STARLINK-4761,PAYLOAD,2024-08-16 00:43:31,15.08838126,0.0001145,53.2182,345.7385,107.32,252.7918,0.00025321,3.744e-05,0.0,0 STARLINK-4761,1 53830U 22114N   24229.03022970  .00003744  00000-0  25321-3 0  9995,2 53830  53.2182 345.7385 0001145 107.3200 252.7918 15.08838126106149,6917.886,95.438,540.543,538.959,0.0
53830.0,STARLINK-4761,PAYLOAD,2024-08-16 18:12:46,15.08842656,0.000156,53.2191,342.4706,117.1169,242.9982,1.3884e-05,-6.7e-07,0.0,0 STARLINK-4761,1 53830U 22114N   24229.75887515 -.00000067  00000-0  13884-4 0  9996,2 53830  53.2191 342.4706 0001560 117.1169 242.9982 15.08842656106790,6917.872,95.437,540.816,538.658,0.0
53830.0,STARLINK-4761,PAYLOAD,2024-08-18 13:08:10,15.08853479,0.0001421,53.2187,334.4417,96.6317,263.4837,0.00030703,4.604e-05,0.0,0 STARLINK-4761,1 53830U 22114N   24231.54733927  .00004604  00000-0  30703-3 0  9991,2 53830  53.2187 334.4417 0001421  96.6317 263.4837 15.08853479106520,6917.839,95.437,540.687,538.721,0.0
53830.0,STARLINK-4761,PAYLOAD,2024-08-18 14:43:32,15.08858196,0.0001144,53.2183,334.142,97.2636,262.8486,0.00037235,5.646e-05,0.0,0 STARLINK-4761,1 53830U 22114N   24231.61357383  .00005646  00000-0  37235-3 0  9991,2 53830  53.2183 334.1420 0001144  97.2636 262.8486 15.08858196107075,6917.825,95.436,540.481,538.898,0.0
53830.0,STARLINK-4761,PAYLOAD,2024-08-19 12:58:59,15.08836877,0.000103,53.2183,329.9809,60.6168,299.4927,-2.9363e-05,-7.55e-06,0.0,0 STARLINK-4761,1 53830U 22114N   24232.54096107 -.00000755  00000-0 -29363-4 0  9990,2 53830  53.2183 329.9809 0001030  60.6168 299.4927 15.08836877106679,6917.89,95.438,540.467,539.042,0.0
53830.0,STARLINK-4761,PAYLOAD,2024-08-20 12:49:44,15.08856318,0.0001502,53.2189,325.5185,98.3209,261.7954,-4.8991e-05,-1.068e-05,0.0,0 STARLINK-4761,1 53830U 22114N   24233.53454762 -.00001068  00000-0 -48991-4 0  9991,2 53830  53.2189 325.5185 0001502  98.3209 261.7954 15.08856318106823,6917.831,95.437,540.735,538.656,0.0
53830.0,STARLINK-4761,PAYLOAD,2024-08-21 11:05:09,15.08834577,0.0001497,53.2177,321.3534,83.6664,276.4498,8.188e-05,1.015e-05,0.0,0 STARLINK-4761,1 53830U 22114N   24234.46192057  .00001015  00000-0  81880-4 0  9994,2 53830  53.2177 321.3534 0001497  83.6664 276.4498 15.08834577106961,6917.897,95.438,540.798,538.726,0.0
